479P/Elenin,e,15.3988,295.8315,263.5202,5.623465,0.0739091,0.77885353,15.1336,11/26.0/2024,2000,g 15.0,4.0
# From MPEC 2024-GJ3
480P/PANSTARRS,e,13.7175,229.9772,214.3332,4.609195,0.0996016,0.24640805,58.0313,11/26.0/2024,2000,g 12.0,4.0
# From MPEC 2024-L77
481P/Lemmon-PANSTARRS,e,6.0826,93.5513,356.7387,4.679858,0.0973543,0.34348493,49.2540,11/26.0/2024,2000,g 13.5,4.0
# From MPEC 2024-JU4
482P/PANSTARRS,e,24.4850,126.0873,339.6895,3.755944,0.1354021,0.49236533,73.5122,11/26.0/2024,2000,g 13.5,4.0
# From MPEC 2024-R10
483P-A/PANSTARRS,e,14.2440,199.6245,48.5635,3.191105,0.1728990,0.22406205,174.0513,11/26.0/2024,2000,g 13.5,4.0
# From MPEC 2024-R10
483P-B/PANSTARRS,e,14.2448,199.6239,48.5534,3.191037,0.1729045,0.22400134,174.0861,11/26.0/2024,2000,g 17.0,4.0
# From MPEC 2024-DD5
484P/Spacewatch,e,14.4752,265.3946,240.7687,3.757761,0.1353039,0.43266306,197.5220,11/26.0/2024,2000,g 16.0,4.0
# From MPEC 2024-JU4
485P/Sheppard-Tholen,e,10.0161,261.6447,196.0477,6.848415,0.0549945,0.41714352,25.2467,11/26.0/2024,2000,g 13.0,4.0
# From MPEC 2024-R10
486P/Leonard,e,2.2095,219.0281,93.9485,3.628645,0.1425895,0.36370043,341.6262,11/26.0/2024,2000,g 14.5,4.0
# From MPEC 2024-VJ2
487P/SidingSpring,e,39.3690,49.2106,0.8630,5.166056,0.0839393,0.64867185,3.0514,11/26.0/2024,2000,g 13.5,4.0
# From MPEC 2024-UA9
488P/NEAT-PANSTARRS,e,11.3641,324.0661,1.4800,3.733457,0.1366272,0.55055586,26.0681,11/26.0/2024,2000,g 16.5,4.0
# From MPEC 2024-Q14
489P/Denning,e,4.0269,20.6115,109.4458,4.421904,0.1059961,0.64698390,320.4226,11/26.0/2024,2000,g 15.5,4.0
# From MPEC 2024-UQ8
490P/ATLAS,e,12.2664,307.6078,332.5235,3.029823,0.1868866,0.64725173,10.9914,11/26.0/2024,2000,g 21.0,4.0
# From MPEC 2024-UQ8
491P/Spacewatch-PANSTARRS,e,9.3653,311.6891,298.9181,5.013590,0.0877972,0.25867558,7.0879,11/26.0/2024,2000,g  9.5,4.0
# From MPEC 2024-VB7
492P/LINEAR,e,11.4001,11.3136,40.9973,5.765231,0.0711998,0.69087723,9.1487,11/26.0/2024,2000,g 15.0,4.0
# From MPEC 2024-VJ2
493P/LONEOS,e,24.1144,1.1137,83.1827,7.159501,0.0514494,0.46591683,338.6932,11/26.0/2024,2000,g 12.0,2.0
# From MPEC 2024-RQ6
494P/PANSTARRS,e,7.7897,245.0458,48.8817,3.795189,0.1333073,0.35698115,23.8567,11/26.0/2024,2000,g 16.0,4.0
# From MPEC 2024-UQ8
495P/Christensen,e,26.3557,291.6239,141.3714,4.753465,0.0951018,0.27201384,328.5425,11/26.0/2024,2000,g 11.5,4.0
# From MPEC 2024-VJ2
496P/Hill,e,14.8152,63.5880,42.2564,6.102634,0.0653775,0.73438012,353.1813,11/26.0/2024,2000,g 14.0,4.0
# From MPEC 2024-VB7
497P/Spacewatch-PANSTARRS,e,10.4390,40.3858,32.4249,5.614899,0.0740783,0.63041560,353.9702,11/26.0/2024,2000,g 17.5,4.0
# From MPC107687
1I/`Oumuamua,h,09/09.4886/2017,122.6778,24.5997,241.6845,1.199252,0.255240,2000,23.0,2.0
# From MPEC 2023-L37
2I/Borisov,h,12/08.5548/2019,44.0527,308.1480,209.1251,3.356633,2.006548,2000,11.0,4.0
